{
  "links" : {
    "next" : "https://api.nasa.gov/neo/rest/v1/feed?start_date=2005-06-09&end_date=2005-06-09&detailed=true&api_key=t0TVs3DtDT2H8Oy2Zy8m2eVrNsAVKAexjcZXUckd",
    "prev" : "https://api.nasa.gov/neo/rest/v1/feed?start_date=2005-06-07&end_date=2005-06-07&detailed=true&api_key=t0TVs3DtDT2H8Oy2Zy8m2eVrNsAVKAexjcZXUckd",
    "self" : "https://api.nasa.gov/neo/rest/v1/feed?start_date=2005-06-08&end_date=2005-06-08&detailed=true&api_key=t0TVs3DtDT2H8Oy2Zy8m2eVrNsAVKAexjcZXUckd"
  },
  "element_count" : 9,
  "near_earth_objects" : {
    "2005-06-08" : [ {
      "links" : {
        "self" : "https://api.nasa.gov/neo/rest/v1/neo/3556126?api_key=t0TVs3DtDT2H8Oy2Zy8m2eVrNsAVKAexjcZXUckd"
      },
      "neo_reference_id" : "3556126",
      "name" : "(2011 BM45)",
      "nasa_jpl_url" : "http://ssd.jpl.nasa.gov/sbdb.cgi?sstr=3556126",
      "absolute_magnitude_h" : 21.4,
      "estimated_diameter" : {
        "kilometers" : {
          "estimated_diameter_min" : 0.1394938229,
          "estimated_diameter_max" : 0.3119176705
        },
        "meters" : {
          "estimated_diameter_min" : 139.4938229344,
          "estimated_diameter_max" : 311.9176705226
        },
        "miles" : {
          "estimated_diameter_min" : 0.0866774163,
          "estimated_diameter_max" : 0.1938165949
        },
        "feet" : {
          "estimated_diameter_min" : 457.6569140361,
          "estimated_diameter_max" : 1023.3519701574
        }
      },
      "is_potentially_hazardous_asteroid" : true,
      "close_approach_data" : [ {
        "close_approach_date" : "2005-06-08",
        "epoch_date_close_approach" : 1118214000000,
        "relative_velocity" : {
          "kilometers_per_second" : "23.4288925802",
          "kilometers_per_hour" : "84344.0132888597",
          "miles_per_hour" : "52408.0898127362"
        },
        "miss_distance" : {
          "astronomical" : "0.1532905756",
          "lunar" : "59.6300315857",
          "kilometers" : "22931944",
          "miles" : "14249249"
        },
        "orbiting_body" : "Earth"
      } ],
      "orbital_data" : {
        "orbit_id" : "12",
        "orbit_determination_date" : "2017-04-06 08:54:43",
        "orbit_uncertainty" : "7",
        "minimum_orbit_intersection" : ".00730241",
        "jupiter_tisserand_invariant" : "3.431",
        "epoch_osculation" : "2458000.5",
        "eccentricity" : ".803361690242676",
        "semi_major_axis" : "1.919843476082415",
        "inclination" : "5.32707807174349",
        "ascending_node_longitude" : "302.5295930509469",
        "orbital_period" : "971.6215985940203",
        "perihelion_distance" : ".3775147761354716",
        "perihelion_argument" : "62.92841621001688",
        "aphelion_distance" : "3.462172176029359",
        "perihelion_time" : "2458431.706233621272",
        "mean_anomaly" : "200.231789486474",
        "mean_motion" : ".3705146123973942",
        "equinox" : "J2000"
      }
    }, {
      "links" : {
        "self" : "https://api.nasa.gov/neo/rest/v1/neo/3774574?api_key=t0TVs3DtDT2H8Oy2Zy8m2eVrNsAVKAexjcZXUckd"
      },
      "neo_reference_id" : "3774574",
      "name" : "(2017 JJ2)",
      "nasa_jpl_url" : "http://ssd.jpl.nasa.gov/sbdb.cgi?sstr=3774574",
      "absolute_magnitude_h" : 25.132,
      "estimated_diameter" : {
        "kilometers" : {
          "estimated_diameter_min" : 0.0250123776,
          "estimated_diameter_max" : 0.0559293766
        },
        "meters" : {
          "estimated_diameter_min" : 25.0123776121,
          "estimated_diameter_max" : 55.9293766196
        },
        "miles" : {
          "estimated_diameter_min" : 0.0155419661,
          "estimated_diameter_max" : 0.0347528927
        },
        "feet" : {
          "estimated_diameter_min" : 82.061608965,
          "estimated_diameter_max" : 183.4953359888
        }
      },
      "is_potentially_hazardous_asteroid" : false,
      "close_approach_data" : [ {
        "close_approach_date" : "2005-06-08",
        "epoch_date_close_approach" : 1118214000000,
        "relative_velocity" : {
          "kilometers_per_second" : "14.4637977059",
          "kilometers_per_hour" : "52069.6717413044",
          "miles_per_hour" : "32354.0690883678"
        },
        "miss_distance" : {
          "astronomical" : "0.1500725515",
          "lunar" : "58.3782196045",
          "kilometers" : "22450534",
          "miles" : "13950115"
        },
        "orbiting_body" : "Earth"
      } ],
      "orbital_data" : {
        "orbit_id" : "1",
        "orbit_determination_date" : "2017-05-10 05:14:59",
        "orbit_uncertainty" : "8",
        "minimum_orbit_intersection" : ".0126979",
        "jupiter_tisserand_invariant" : "8.080",
        "epoch_osculation" : "2457878.5",
        "eccentricity" : ".6264483432533141",
        "semi_major_axis" : ".6915479746919987",
        "inclination" : "12.15369338061769",
        "ascending_node_longitude" : "216.4315955637605",
        "orbital_period" : "210.0544553288373",
        "perihelion_distance" : ".2583288916660113",
        "perihelion_argument" : "205.1834154911257",
        "aphelion_distance" : "1.124767057717986",
        "perihelion_time" : "2457806.708254393546",
        "mean_anomaly" : "123.0396583488954",
        "mean_motion" : "1.713841296231613",
        "equinox" : "J2000"
      }
    }, {
      "links" : {
        "self" : "https://api.nasa.gov/neo/rest/v1/neo/2494999?api_key=t0TVs3DtDT2H8Oy2Zy8m2eVrNsAVKAexjcZXUckd"
      },
      "neo_reference_id" : "2494999",
      "name" : "494999 (2010 JU39)",
      "nasa_jpl_url" : "http://ssd.jpl.nasa.gov/sbdb.cgi?sstr=2494999",
      "absolute_magnitude_h" : 19.6,
      "estimated_diameter" : {
        "kilometers" : {
          "estimated_diameter_min" : 0.3195618867,
          "estimated_diameter_max" : 0.7145621017
        },
        "meters" : {
          "estimated_diameter_min" : 319.5618867213,
          "estimated_diameter_max" : 714.5621017269
        },
        "miles" : {
          "estimated_diameter_min" : 0.1985664891,
          "estimated_diameter_max" : 0.4440081677
        },
        "feet" : {
          "estimated_diameter_min" : 1048.4314204307,
          "estimated_diameter_max" : 2344.3639258298
        }
      },
      "is_potentially_hazardous_asteroid" : true,
      "close_approach_data" : [ {
        "close_approach_date" : "2005-06-08",
        "epoch_date_close_approach" : 1118214000000,
        "relative_velocity" : {
          "kilometers_per_second" : "35.256080276",
          "kilometers_per_hour" : "126921.8889935449",
          "miles_per_hour" : "78864.3259693502"
        },
        "miss_distance" : {
          "astronomical" : "0.4601207891",
          "lunar" : "178.9869842529",
          "kilometers" : "68833096",
          "miles" : "42770900"
        },
        "orbiting_body" : "Earth"
      } ],
      "orbital_data" : {
        "orbit_id" : "24",
        "orbit_determination_date" : "2017-06-12 13:24:10",
        "orbit_uncertainty" : "1",
        "minimum_orbit_intersection" : ".00475891",
        "jupiter_tisserand_invariant" : "6.230",
        "epoch_osculation" : "2458000.5",
        "eccentricity" : ".5462468937485256",
        "semi_major_axis" : ".9189318354555723",
        "inclination" : "36.21048131653544",
        "ascending_node_longitude" : "95.18686687484823",
        "orbital_period" : "321.753569102684",
        "perihelion_distance" : ".4169681747713347",
        "perihelion_argument" : "311.3828101091518",
        "aphelion_distance" : "1.42089549613981",
        "perihelion_time" : "2458084.658071551425",
        "mean_anomaly" : "265.8381672563696",
        "mean_motion" : "1.118868707514197",
        "equinox" : "J2000"
      }
    } ]
  }
}